[{"OBJECT_NAME":"NANOSAT-1","OBJECT_ID":"2004-049B","EPOCH":"2026-03-09T22:09:44.581824","MEAN_MOTION":14.79922101,"ECCENTRICITY":0.00029678,"INCLINATION":98.2096,"RA_OF_ASC_NODE":203.2649,"ARG_OF_PERICENTER":243.7853,"MEAN_ANOMALY":116.3053,"EPHEMERIS_TYPE":0,"CLASSIFICATION_TYPE":"U","NORAD_CAT_ID":28493,"ELEMENT_SET_NO":999,"REV_AT_EPOCH":14076,"BSTAR":0.00025095221,"MEAN_MOTION_DOT":1.84e-5,"MEAN_MOTION_DDOT":0},{"OBJECT_NAME":"KUIPER-00081","OBJECT_ID":"2025-171A","EPOCH":"2026-03-09T12:27:51.030432","MEAN_MOTION":14.79979194,"ECCENTRICITY":5.129e-5,"INCLINATION":51.8988,"RA_OF_ASC_NODE":148.8267,"ARG_OF_PERICENTER":50.4141,"MEAN_ANOMALY":309.6867,"EPHEMERIS_TYPE":0,"CLASSIFICATION_TYPE":"U","NORAD_CAT_ID":65132,"ELEMENT_SET_NO":999,"REV_AT_EPOCH":3301,"BSTAR":0.00075497205,"MEAN_MOTION_DOT":5.545e-5,"MEAN_MOTION_DDOT":0}]
